[{"OBJECT_NAME":"NEXSAT-1","OBJECT_ID":"2024-024E","EPOCH":"2026-03-09T22:47:24.778176","MEAN_MOTION":15.32166372,"ECCENTRICITY":0.00099795,"INCLINATION":97.3124,"RA_OF_ASC_NODE":144.1918,"ARG_OF_PERICENTER":108.5709,"MEAN_ANOMALY":251.6617,"EPHEMERIS_TYPE":0,"CLASSIFICATION_TYPE":"U","NORAD_CAT_ID":58921,"ELEMENT_SET_NO":999,"REV_AT_EPOCH":11669,"BSTAR":0.00031433612,"MEAN_MOTION_DOT":9.702e-5,"MEAN_MOTION_DDOT":0},{"OBJECT_NAME":"STARLINK-35205","OBJECT_ID":"2025-212D","EPOCH":"2026-03-09T23:20:07.234080","MEAN_MOTION":15.30173975,"ECCENTRICITY":0.00015403,"INCLINATION":53.1608,"RA_OF_ASC_NODE":344.588,"ARG_OF_PERICENTER":151.428,"MEAN_ANOMALY":208.6806,"EPHEMERIS_TYPE":0,"CLASSIFICATION_TYPE":"U","NORAD_CAT_ID":65679,"ELEMENT_SET_NO":999,"REV_AT_EPOCH":2723,"BSTAR":0.001059404,"MEAN_MOTION_DOT":0.00031124,"MEAN_MOTION_DDOT":0}]
